NUSAT-1 (FRESCO)        
1 41557U 16033B   22138.18560332  .00016975  00000+0  51817-3 0  9991
2 41557  97.3865 235.8507 0012815 125.0274 324.1813 15.33902484332740
BEESAT-4                
1 41619U 16040W   22137.58702376  .00021039  00000+0  72046-3 0  9991
2 41619  97.2188 189.0541 0008939 215.8199 144.2444 15.30203461316008
CAS-2T & KS-1Q          
1 41847U 16066G   22137.46055880  .00000669  00000+0  11153-3 0  9998
2 41847  98.5524 202.1580 0362977 302.6993  53.9674 14.38543054289890
NAYIF-1 (EO-88)         
1 42017U 17008BX  22137.45267078  .00025673  00000+0  79117-3 0  9994
2 42017  97.2704 204.0338 0004541  17.2890 342.8506 15.33583889292325
ZHUHAI-1 02 (CAS-4B)    
1 42759U 17034B   22137.77046296  .00003477  00000+0  21367-3 0  9990
2 42759  43.0158 141.7973 0007327  94.3690 256.7566 15.11658080271701
ZHUHAI-1 01 (CAS-4A)    
1 42761U 17034D   22138.14809686  .00003341  00000+0  20530-3 0  9996
2 42761  43.0161 138.5219 0007694  97.0336 306.5789 15.11751454271776
MAX VALIER SAT          
1 42778U 17036P   22137.91273832  .00013370  00000+0  51415-3 0  9997
2 42778  97.2075 180.0685 0012936  79.3880 280.8816 15.26442699272242
RADFXSAT (FOX-1B)       
1 43017U 17073E   22138.17699067  .00006147  00000+0  46768-3 0  9995
2 43017  97.6780  33.6039 0247782 287.1279  70.2937 14.81217216242632
FOX-1D (AO-92)          
1 43137U 18004AC  22137.66616874  .00015676  00000+0  56224-3 0  9996
2 43137  97.3693 213.1107 0009436 110.9727 249.2523 15.28752259241641
DIWATA-2B               
1 43678U 18084H   22138.13897708  .00001456  00000+0  14892-3 0  9990
2 43678  97.9653 271.0582 0010600  33.2140 326.9753 14.92115299193331
ES'HAIL 2               
1 43700U 18090A   22136.86668990  .00000152  00000+0  00000+0 0  9994
2 43700   0.0589  99.0150 0002876 347.1547 126.1944  1.00273323 12715
FOX-1CLIFF (AO-95)      
1 43770U 18099N   22137.16134607  .00003157  00000+0  28402-3 0  9995
2 43770  97.6220 204.3238 0014729  26.4891 333.7080 14.96266396188333
ITASAT 1                
1 43786U 18099AE  22138.16088888  .00003270  00000+0  29259-3 0  9999
2 43786  97.6247 206.1993 0015145  15.9901 344.1796 14.96447060188525
JY1SAT (JO-97)          
1 43803U 18099AX  22137.65358535  .00004610  00000+0  40578-3 0  9997
2 43803  97.6200 205.4521 0014671  16.8296 343.3410 14.96892076188461
UWE-4                   
1 43880U 18111E   22137.67546269  .00005028  00000+0  43044-3 0  9997
2 43880  97.6697  44.5234 0013338  68.2641 292.0000 14.97953882185098
NEXUS (FO-99)           
1 43937U 19003F   22137.89479964  .00017533  00000+0  60386-3 0  9994
2 43937  97.1325 172.4459 0018936 260.8372  99.0728 15.29915874185305
PSAT2 (NO-104)          
1 44354U 19036R   22137.11830330  .00078865 -49329-5  76455-3 0  9990
2 44354  28.5278  34.9281 0245984 338.5469  20.4971 15.35214441159852
JAISAT-1                
1 44419U 19038F   22137.89881622  .00008231  00000+0  42050-3 0  9999
2 44419  97.6343 107.7916 0017584 233.3576 126.6041 15.16816121158423
DUCHIFAT-3              
1 44854U 19089C   22137.77300421  .00004533  00000+0  35555-3 0  9991
2 44854  36.9679 282.2060 0009309 329.6393  30.3790 15.00846914133325
CAS-6 (TO-108)          
1 44881U 19093C   22138.12218506  .00000667  00000+0  91281-4 0  9991
2 44881  97.8928 217.7654 0013684 286.8983  73.0749 14.81686588130287
RS-44 & BREEZE-KM R/B   
1 44909U 19096E   22137.70034342  .00000021  00000+0  35239-4 0  9997
2 44909  82.5220 250.7019 0217812  31.9189 329.4897 12.79713119111571
ORBITAL FACTORY 2 (OF-2)
1 45113U 19071C   22137.44412832  .00033712  00000+0  73524-3 0  9994
2 45113  51.6380 211.7778 0010420  51.4848 308.7071 15.43865212128586
HUSKYSAT-1 (HO-107)     
1 45119U 19071J   22138.21027084  .00032675  00000+0  72976-3 0  9994
2 45119  51.6375 207.8723 0010192  51.8849 308.3054 15.43178035128692
BY70-2                  
1 45857U 20042B   22138.12976772  .00010340  00000+0  13918-2 0  9995
2 45857  97.9557 215.2702 0011042 203.7579 156.3147 14.79358383100978
SALSAT                  
1 46495U 20068K   22137.76762630  .00004173  00000+0  30265-3 0  9999
2 46495  97.7296  79.0651 0017450  27.6189 332.5960 15.04361885 89576
BY70-3                  
1 46839U 20079N   22137.93351891  .00027930  00000+0  68597-3 0  9990
2 46839  97.2014 210.4545 0007335  90.9478  23.7890 15.40608992 85546
RADFXSAT-2 (AO-109)     
1 47311U 21002C   22137.65435923  .00012986  00000+0  52954-3 0  9996
2 47311  60.6847 118.1452 0011983 297.9702  62.0172 15.24741735 73769
UVSQ-SAT                
1 47438U 21006AB  22137.44610898  .00010168  00000+0  54218-3 0  9998
2 47438  97.4392 197.0966 0012368  30.4165 329.7783 15.15298263 72582
DIY-1 (ARDUIQUBE)       
1 47963U 21022AH  22137.66013946  .00026103  00000+0  14956-2 0  9994
2 47963  97.5351  39.3949 0015127 234.6505 125.3313 15.12482742 62292
XW-3 (CAS-9)            
1 50466U 21131B   22138.12342439  .00000364  00000+0  13377-3 0  9999
2 50466  98.5807 215.3908 0003719 225.2622 134.8263 14.38485413 20559
